{"type":"FeatureCollection","features":[{"type":"Feature","properties":{},"geometry":{"coordinates":[[79.11237060586029,21.01288000745963],[79.11153697107534,21.014964794779956]],"type":"LineString"}},{"type":"Feature","properties":{},"geometry":{"coordinates":[[79.1112076338768,21.010862443598043],[79.11312190634601,21.010862443598043],[79.11472742519226,21.010910481150006],[79.11469654983046,21.011976910818632]],"type":"LineString"}},{"type":"Feature","properties":{},"geometry":{"coordinates":[[79.11243235658549,21.01288000745963],[79.11896764163163,21.013052940234672]],"type":"LineString"}},{"type":"Feature","properties":{},"geometry":{"coordinates":[[79.11013728797877,21.01089126613124],[79.11122821745079,21.01089126613124]],"type":"LineString"}},{"type":"Feature","properties":{},"geometry":{"coordinates":[[79.10998291116641,21.008787206587215],[79.1147583005556,21.008796814232753],[79.11471713340444,21.01094891118089]],"type":"LineString"}}]}