{"type": "FeatureCollection", "features": [{"type": "Feature", "geometry": {"type": "MultiLineString", "coordinates": [[[79.118972148, 21.013077743], [79.118977245, 21.013076446], [79.118981973, 21.013074245], [79.11898615, 21.013071226], [79.118989616, 21.013067504], [79.118992237, 21.013063222], [79.118993914, 21.013058545], [79.11899458, 21.013053653], [79.118994212, 21.013048733], [79.118992822, 21.013043975], [79.118990465, 21.013039562], [79.11898723, 21.013035663], [79.118983243, 21.013032427], [79.118978656, 21.01302998], [79.118973646, 21.013028415], [79.118968405, 21.013027793], [79.11243312, 21.01285486], [79.11242785, 21.012855204], [79.112422753, 21.012856502], [79.112418025, 21.012858702], [79.112413848, 21.012861722], [79.112410382, 21.012865444], [79.112407761, 21.012869725], [79.112406085, 21.012874402], [79.112405418, 21.012879295], [79.112405787, 21.012884214], [79.112407176, 21.012888972], [79.112409534, 21.012893386], [79.112412768, 21.012897285], [79.112416755, 21.012900521], [79.112421342, 21.012902968], [79.112426352, 21.012904532], [79.112431593, 21.012905155], [79.118966878, 21.013078087], [79.118972148, 21.013077743]], [[79.110137288, 21.010866108], [79.11013203, 21.010866592], [79.110126975, 21.010868023], [79.110122316, 21.010870348], [79.110118232, 21.010873477], [79.11011488, 21.010877289], [79.11011239, 21.010881639], [79.110110856, 21.010886358], [79.110110339, 21.010891266], [79.110110856, 21.010896174], [79.11011239, 21.010900894], [79.11011488, 21.010905243], [79.110118232, 21.010909055], [79.110122316, 21.010912184], [79.110126975, 21.010914509], [79.11013203, 21.01091594], [79.110137288, 21.010916424], [79.111228217, 21.010916424], [79.111233475, 21.01091594], [79.111238531, 21.010914509], [79.11124319, 21.010912184], [79.111247274, 21.010909055], [79.111250625, 21.010905243], [79.111253116, 21.010900894], [79.111254649, 21.010896174], [79.111255167, 21.010891266], [79.11125478, 21.010887601], [79.111207634, 21.010887601], [79.111202376, 21.010887118], [79.111197321, 21.010885686], [79.111192662, 21.010883361], [79.111188578, 21.010880233], [79.111185226, 21.01087642], [79.111182736, 21.010872071], [79.111181202, 21.010867352], [79.111181071, 21.010866108], [79.110137288, 21.010866108]], [[79.11469318, 21.010934627], [79.114690989, 21.01094281], [79.11469318, 21.010934627], [79.113121475, 21.010887601], [79.11469318, 21.010934627]], [[79.114690216, 21.010947688], [79.114690238, 21.010948097], [79.114690989, 21.01094281], [79.114690216, 21.010947688]], [[79.114669986, 21.01198115], [79.114670016, 21.011981252], [79.114669806, 21.011978795], [79.114669986, 21.01198115]], [[79.114671382, 21.011985907], [79.114671433, 21.011986001], [79.114670714, 21.011983629], [79.114671382, 21.011985907]], [[79.114673746, 21.011990317], [79.114673815, 21.0119904], [79.114672614, 21.011988205], [79.114673746, 21.011990317]], [[79.114676986, 21.011994213], [79.114677071, 21.011994282], [79.114675434, 21.011992347], [79.114676986, 21.011994213]], [[79.114680978, 21.011997443], [79.114681076, 21.011997495], [79.114679066, 21.011995896], [79.114680978, 21.011997443]], [[79.114685568, 21.011999885], [79.114685675, 21.011999918], [79.11468337, 21.011998716], [79.114685568, 21.011999885]], [[79.11469058, 21.012001443], [79.114690692, 21.012001456], [79.11468818, 21.012000697], [79.11469058, 21.012001443]], [[79.114695822, 21.012002059], [79.114695934, 21.012002052], [79.114693312, 21.012001764], [79.114695822, 21.012002059]], [[79.114701091, 21.012001708], [79.1147012, 21.012001681], [79.114698568, 21.012001876], [79.114701091, 21.012001708]], [[79.114706187, 21.012000405], [79.114706287, 21.012000358], [79.114703747, 21.012001029], [79.114706187, 21.012000405]], [[79.114710911, 21.011998198], [79.114711, 21.011998134], [79.114708649, 21.011999255], [79.114710911, 21.011998198]], [[79.114715084, 21.011995174], [79.114715158, 21.011995094], [79.114713086, 21.011996622], [79.114715084, 21.011995174]], [[79.114718545, 21.011991448], [79.114718601, 21.011991356], [79.114716888, 21.011993232], [79.114718545, 21.011991448]], [[79.11472116, 21.011987163], [79.114721196, 21.011987063], [79.114719908, 21.011989214], [79.11472116, 21.011987163]], [[79.11472283, 21.011982484], [79.114722844, 21.011982379], [79.11472203, 21.011984724], [79.11472283, 21.011982484]], [[79.114723489, 21.011977591], [79.114754365, 21.010911161], [79.114754352, 21.010910992], [79.114754372, 21.010910824], [79.114785248, 21.008797157], [79.114784794, 21.008792208], [79.114783308, 21.008787437], [79.114780847, 21.008783033], [79.114777507, 21.008779166], [79.114773417, 21.008775987], [79.114768739, 21.00877362], [79.114763653, 21.008772157], [79.114758359, 21.008771656], [79.109982969, 21.008762049], [79.109977711, 21.008762521], [79.109972652, 21.008763943], [79.109967987, 21.008766258], [79.109963896, 21.008769379], [79.109960536, 21.008773184], [79.109958035, 21.008777529], [79.109956491, 21.008782245], [79.109955962, 21.008787152], [79.109956468, 21.008792061], [79.109957991, 21.008796784], [79.109960471, 21.008801139], [79.109963814, 21.008804958], [79.109967891, 21.008808095], [79.109972544, 21.008810429], [79.109977597, 21.008811871], [79.109982853, 21.008812365], [79.114730982, 21.008821917], [79.114700853, 21.010884516], [79.114718737, 21.010885051], [79.114728289, 21.010885336], [79.114733575, 21.010885987], [79.114738621, 21.010887597], [79.114743229, 21.010890103], [79.114747217, 21.010893407], [79.114750431, 21.010897379], [79.114752744, 21.010901864], [79.114754066, 21.010906687], [79.114754345, 21.010911658], [79.11475357, 21.010916583], [79.114744021, 21.010952239], [79.114723495, 21.011977381], [79.114723174, 21.011979934], [79.114723489, 21.011977591]]]}, "properties": {}}]}