{"type": "FeatureCollection", "features": [{"type": "Feature", "geometry": {"type": "MultiLineString", "coordinates": [[[79.114690189, 21.010948441], [79.114669605, 21.011976441], [79.114669806, 21.011978795], [79.11466961, 21.011976231], [79.114698823, 21.010967209], [79.114697173, 21.010965815], [79.114694024, 21.010961855], [79.114691763, 21.010957397], [79.114690477, 21.010952614], [79.114690238, 21.010948097], [79.114690189, 21.010948441]], [[79.114670025, 21.011981357], [79.114670714, 21.011983629], [79.114670016, 21.011981252], [79.114670025, 21.011981357]], [[79.114671463, 21.011986102], [79.114672614, 21.011988205], [79.114671433, 21.011986001], [79.114671463, 21.011986102]], [[79.114673866, 21.011990494], [79.114675434, 21.011992347], [79.114673815, 21.0119904], [79.114673866, 21.011990494]], [[79.114677141, 21.011994364], [79.114679066, 21.011995896], [79.114677071, 21.011994282], [79.114677141, 21.011994364]], [[79.114681161, 21.011997564], [79.11468337, 21.011998716], [79.114681076, 21.011997495], [79.114681161, 21.011997564]], [[79.114685773, 21.011999969], [79.11468818, 21.012000697], [79.114685675, 21.011999918], [79.114685773, 21.011999969]], [[79.114690799, 21.012001489], [79.114693312, 21.012001764], [79.114690692, 21.012001456], [79.114690799, 21.012001489]], [[79.114696046, 21.012002064], [79.114698568, 21.012001876], [79.114695934, 21.012002052], [79.114696046, 21.012002064]], [[79.114701313, 21.012001672], [79.114703747, 21.012001029], [79.1147012, 21.012001681], [79.114701313, 21.012001672]], [[79.114706396, 21.012000329], [79.114708649, 21.011999255], [79.114706287, 21.012000358], [79.114706396, 21.012000329]], [[79.114711101, 21.011998086], [79.114713086, 21.011996622], [79.114711, 21.011998134], [79.114711101, 21.011998086]], [[79.114715247, 21.011995029], [79.114716888, 21.011993232], [79.114715158, 21.011995094], [79.114715247, 21.011995029]], [[79.114718674, 21.011991276], [79.114719908, 21.011989214], [79.114718601, 21.011991356], [79.114718674, 21.011991276]], [[79.114721251, 21.011986971], [79.11472203, 21.011984724], [79.114721196, 21.011987063], [79.114721251, 21.011986971]], [[79.114722879, 21.011982279], [79.114723174, 21.011979934], [79.114722844, 21.011982379], [79.114722879, 21.011982279]], [[79.11312277, 21.010837299], [79.114700853, 21.010884516], [79.114700853, 21.010884516], [79.11312277, 21.010837299]]]}, "properties": {}}]}